[{"OBJECT_NAME":"STARLINK-5790","OBJECT_ID":"2023-042BC","EPOCH":"2026-03-09T07:01:22.727424","MEAN_MOTION":15.02531395,"ECCENTRICITY":0.00012555,"INCLINATION":43.005,"RA_OF_ASC_NODE":44.9882,"ARG_OF_PERICENTER":272.4301,"MEAN_ANOMALY":87.6398,"EPHEMERIS_TYPE":0,"CLASSIFICATION_TYPE":"U","NORAD_CAT_ID":56036,"ELEMENT_SET_NO":999,"REV_AT_EPOCH":16300,"BSTAR":6.860817e-6,"MEAN_MOTION_DOT":-1.11e-6,"MEAN_MOTION_DDOT":0},{"OBJECT_NAME":"FENGYUN 1C DEB","OBJECT_ID":"1999-025CGF","EPOCH":"2026-03-09T22:03:04.747680","MEAN_MOTION":14.70112354,"ECCENTRICITY":0.01494246,"INCLINATION":99.2965,"RA_OF_ASC_NODE":238.5623,"ARG_OF_PERICENTER":145.3252,"MEAN_ANOMALY":215.7803,"EPHEMERIS_TYPE":0,"CLASSIFICATION_TYPE":"U","NORAD_CAT_ID":31780,"ELEMENT_SET_NO":999,"REV_AT_EPOCH":99778,"BSTAR":0.00059016291,"MEAN_MOTION_DOT":4.146e-5,"MEAN_MOTION_DDOT":0}]
